STARLINK-36993          
1 67994U 26039J   26078.83335648 -.01940134  00000+0 -26320-1 0  9995
2 67994  42.9998 353.1984 0001166 260.0731 215.0770 15.60173397  4507
STARLINK-36968          
1 67995U 26039K   26078.83335648  .00045462  00000+0  77723-3 0  9998
2 67995  42.9999 354.0112 0001637 255.8646 250.8719 15.50542980  4509
STARLINK-36979          
1 67996U 26039L   26078.83335648 -.01944976  00000+0 -24813-1 0  9990
2 67996  42.9998 353.1164 0001173 261.8679 246.3056 15.61757344  4502
STARLINK-36994          
1 67997U 26039M   26078.83335648 -.01901819  00000+0 -30366-1 0  9990
2 67997  42.9998 353.3781 0001617 260.0205 142.5661 15.55821622  4502
STARLINK-36988          
1 67998U 26039N   26078.83335648 -.01909483  00000+0 -29336-1 0  9991
2 67998  43.0001 353.3329 0001536 260.2632 160.9407 15.56861085  4504
STARLINK-36926          
1 67999U 26039P   26078.83335648 -.01908171  00000+0 -30267-1 0  9990
2 67999  42.9997 353.3571 0001497 265.7635 145.2986 15.56010652  4509
STARLINK-36931          
1 68000U 26039Q   26078.83335648 -.01933848  00000+0 -26322-1 0  9990
2 68000  43.0000 353.1380 0001166 263.4986 235.5588 15.60076859  4500
STARLINK-36903          
1 68001U 26039R   26078.83335648 -.01903534  00000+0 -30315-1 0  9997
2 68001  42.9999 353.3422 0001456 259.5751 157.4473 15.55895763  4505
STARLINK-36898          
1 68002U 26039S   26078.83335648 -.01930419  00000+0 -27424-1 0  9997
2 68002  43.0001 353.1593 0001178 259.3176 230.8896 15.58960302  4509
STARLINK-36862          
1 68003U 26039T   26078.83335648 -.01898118  00000+0 -29191-1 0  9990
2 68003  42.9997 353.2486 0001295 264.2513 190.2631 15.56815827  4509
STARLINK-36888          
1 68004U 26039U   26078.83335648 -.01902380  00000+0 -29627-1 0  9992
2 68004  42.9995 353.2989 0001426 257.5207 177.0020 15.56488843  4506
STARLINK-36910          
1 68005U 26039V   26078.83335648 -.01929410  00000+0 -26195-1 0  9993
2 68005  42.9998 353.0923 0001007 250.4432 266.8461 15.60135510  4504
