CCSDS_OMM_VERS = 2.0
CREATION_DATE  = 
ORIGINATOR     = 

OBJECT_NAME    = STARLINK-36993
OBJECT_ID      = 2026-039J
CENTER_NAME    = EARTH
REF_FRAME      = TEME
TIME_SYSTEM    = UTC
MEAN_ELEMENT_THEORY = SGP/SGP4

EPOCH          = 2026-03-19T20:00:01.999872
MEAN_MOTION    = 15.60173397
ECCENTRICITY   = .00011663
INCLINATION    = 42.9998
RA_OF_ASC_NODE = 353.1984
ARG_OF_PERICENTER = 260.0731
MEAN_ANOMALY   = 215.0770

EPHEMERIS_TYPE = 0
CLASSIFICATION_TYPE = U
NORAD_CAT_ID   = 67994
ELEMENT_SET_NO = 999
REV_AT_EPOCH   = 450
BSTAR          = -.26320218E-1
MEAN_MOTION_DOT = -.1940134E-1
MEAN_MOTION_DDOT = 0

CCSDS_OMM_VERS = 2.0
CREATION_DATE  = 
ORIGINATOR     = 

OBJECT_NAME    = STARLINK-36968
OBJECT_ID      = 2026-039K
CENTER_NAME    = EARTH
REF_FRAME      = TEME
TIME_SYSTEM    = UTC
MEAN_ELEMENT_THEORY = SGP/SGP4

EPOCH          = 2026-03-19T20:00:01.999872
MEAN_MOTION    = 15.50542980
ECCENTRICITY   = .00016376
INCLINATION    = 42.9999
RA_OF_ASC_NODE = 354.0112
ARG_OF_PERICENTER = 255.8646
MEAN_ANOMALY   = 250.8719

EPHEMERIS_TYPE = 0
CLASSIFICATION_TYPE = U
NORAD_CAT_ID   = 67995
ELEMENT_SET_NO = 999
REV_AT_EPOCH   = 450
BSTAR          = .77723066E-3
MEAN_MOTION_DOT = .45462E-3
MEAN_MOTION_DDOT = 0

CCSDS_OMM_VERS = 2.0
CREATION_DATE  = 
ORIGINATOR     = 

OBJECT_NAME    = STARLINK-36979
OBJECT_ID      = 2026-039L
CENTER_NAME    = EARTH
REF_FRAME      = TEME
TIME_SYSTEM    = UTC
MEAN_ELEMENT_THEORY = SGP/SGP4

EPOCH          = 2026-03-19T20:00:01.999872
MEAN_MOTION    = 15.61757344
ECCENTRICITY   = .00011735
INCLINATION    = 42.9998
RA_OF_ASC_NODE = 353.1164
ARG_OF_PERICENTER = 261.8679
MEAN_ANOMALY   = 246.3056

EPHEMERIS_TYPE = 0
CLASSIFICATION_TYPE = U
NORAD_CAT_ID   = 67996
ELEMENT_SET_NO = 999
REV_AT_EPOCH   = 450
BSTAR          = -.24812728E-1
MEAN_MOTION_DOT = -.1944976E-1
MEAN_MOTION_DDOT = 0

CCSDS_OMM_VERS = 2.0
CREATION_DATE  = 
ORIGINATOR     = 

OBJECT_NAME    = STARLINK-36994
OBJECT_ID      = 2026-039M
CENTER_NAME    = EARTH
REF_FRAME      = TEME
TIME_SYSTEM    = UTC
MEAN_ELEMENT_THEORY = SGP/SGP4

EPOCH          = 2026-03-19T20:00:01.999872
MEAN_MOTION    = 15.55821622
ECCENTRICITY   = .00016176
INCLINATION    = 42.9998
RA_OF_ASC_NODE = 353.3781
ARG_OF_PERICENTER = 260.0205
MEAN_ANOMALY   = 142.5661

EPHEMERIS_TYPE = 0
CLASSIFICATION_TYPE = U
NORAD_CAT_ID   = 67997
ELEMENT_SET_NO = 999
REV_AT_EPOCH   = 450
BSTAR          = -.30365827E-1
MEAN_MOTION_DOT = -.1901819E-1
MEAN_MOTION_DDOT = 0

CCSDS_OMM_VERS = 2.0
CREATION_DATE  = 
ORIGINATOR     = 

OBJECT_NAME    = STARLINK-36988
OBJECT_ID      = 2026-039N
CENTER_NAME    = EARTH
REF_FRAME      = TEME
TIME_SYSTEM    = UTC
MEAN_ELEMENT_THEORY = SGP/SGP4

EPOCH          = 2026-03-19T20:00:01.999872
MEAN_MOTION    = 15.56861085
ECCENTRICITY   = .0001536
INCLINATION    = 43.0001
RA_OF_ASC_NODE = 353.3329
ARG_OF_PERICENTER = 260.2632
MEAN_ANOMALY   = 160.9407

EPHEMERIS_TYPE = 0
CLASSIFICATION_TYPE = U
NORAD_CAT_ID   = 67998
ELEMENT_SET_NO = 999
REV_AT_EPOCH   = 450
BSTAR          = -.29336422E-1
MEAN_MOTION_DOT = -.1909483E-1
MEAN_MOTION_DDOT = 0

CCSDS_OMM_VERS = 2.0
CREATION_DATE  = 
ORIGINATOR     = 

OBJECT_NAME    = STARLINK-36926
OBJECT_ID      = 2026-039P
CENTER_NAME    = EARTH
REF_FRAME      = TEME
TIME_SYSTEM    = UTC
MEAN_ELEMENT_THEORY = SGP/SGP4

EPOCH          = 2026-03-19T20:00:01.999872
MEAN_MOTION    = 15.56010652
ECCENTRICITY   = .00014978
INCLINATION    = 42.9997
RA_OF_ASC_NODE = 353.3571
ARG_OF_PERICENTER = 265.7635
MEAN_ANOMALY   = 145.2986

EPHEMERIS_TYPE = 0
CLASSIFICATION_TYPE = U
NORAD_CAT_ID   = 67999
ELEMENT_SET_NO = 999
REV_AT_EPOCH   = 450
BSTAR          = -.30267207E-1
MEAN_MOTION_DOT = -.1908171E-1
MEAN_MOTION_DDOT = 0

CCSDS_OMM_VERS = 2.0
CREATION_DATE  = 
ORIGINATOR     = 

OBJECT_NAME    = STARLINK-36931
OBJECT_ID      = 2026-039Q
CENTER_NAME    = EARTH
REF_FRAME      = TEME
TIME_SYSTEM    = UTC
MEAN_ELEMENT_THEORY = SGP/SGP4

EPOCH          = 2026-03-19T20:00:01.999872
MEAN_MOTION    = 15.60076859
ECCENTRICITY   = .00011662
INCLINATION    = 43.0000
RA_OF_ASC_NODE = 353.1380
ARG_OF_PERICENTER = 263.4986
MEAN_ANOMALY   = 235.5588

EPHEMERIS_TYPE = 0
CLASSIFICATION_TYPE = U
NORAD_CAT_ID   = 68000
ELEMENT_SET_NO = 999
REV_AT_EPOCH   = 450
BSTAR          = -.26321674E-1
MEAN_MOTION_DOT = -.1933848E-1
MEAN_MOTION_DDOT = 0

CCSDS_OMM_VERS = 2.0
CREATION_DATE  = 
ORIGINATOR     = 

OBJECT_NAME    = STARLINK-36903
OBJECT_ID      = 2026-039R
CENTER_NAME    = EARTH
REF_FRAME      = TEME
TIME_SYSTEM    = UTC
MEAN_ELEMENT_THEORY = SGP/SGP4

EPOCH          = 2026-03-19T20:00:01.999872
MEAN_MOTION    = 15.55895763
ECCENTRICITY   = .00014568
INCLINATION    = 42.9999
RA_OF_ASC_NODE = 353.3422
ARG_OF_PERICENTER = 259.5751
MEAN_ANOMALY   = 157.4473

EPHEMERIS_TYPE = 0
CLASSIFICATION_TYPE = U
NORAD_CAT_ID   = 68001
ELEMENT_SET_NO = 999
REV_AT_EPOCH   = 450
BSTAR          = -.30314505E-1
MEAN_MOTION_DOT = -.1903534E-1
MEAN_MOTION_DDOT = 0

CCSDS_OMM_VERS = 2.0
CREATION_DATE  = 
ORIGINATOR     = 

OBJECT_NAME    = STARLINK-36898
OBJECT_ID      = 2026-039S
CENTER_NAME    = EARTH
REF_FRAME      = TEME
TIME_SYSTEM    = UTC
MEAN_ELEMENT_THEORY = SGP/SGP4

EPOCH          = 2026-03-19T20:00:01.999872
MEAN_MOTION    = 15.58960302
ECCENTRICITY   = .0001178
INCLINATION    = 43.0001
RA_OF_ASC_NODE = 353.1593
ARG_OF_PERICENTER = 259.3176
MEAN_ANOMALY   = 230.8896

EPHEMERIS_TYPE = 0
CLASSIFICATION_TYPE = U
NORAD_CAT_ID   = 68002
ELEMENT_SET_NO = 999
REV_AT_EPOCH   = 450
BSTAR          = -.2742435E-1
MEAN_MOTION_DOT = -.1930419E-1
MEAN_MOTION_DDOT = 0

CCSDS_OMM_VERS = 2.0
CREATION_DATE  = 
ORIGINATOR     = 

OBJECT_NAME    = STARLINK-36862
OBJECT_ID      = 2026-039T
CENTER_NAME    = EARTH
REF_FRAME      = TEME
TIME_SYSTEM    = UTC
MEAN_ELEMENT_THEORY = SGP/SGP4

EPOCH          = 2026-03-19T20:00:01.999872
MEAN_MOTION    = 15.56815827
ECCENTRICITY   = .00012951
INCLINATION    = 42.9997
RA_OF_ASC_NODE = 353.2486
ARG_OF_PERICENTER = 264.2513
MEAN_ANOMALY   = 190.2631

EPHEMERIS_TYPE = 0
CLASSIFICATION_TYPE = U
NORAD_CAT_ID   = 68003
ELEMENT_SET_NO = 999
REV_AT_EPOCH   = 450
BSTAR          = -.2919096E-1
MEAN_MOTION_DOT = -.1898118E-1
MEAN_MOTION_DDOT = 0

CCSDS_OMM_VERS = 2.0
CREATION_DATE  = 
ORIGINATOR     = 

OBJECT_NAME    = STARLINK-36888
OBJECT_ID      = 2026-039U
CENTER_NAME    = EARTH
REF_FRAME      = TEME
TIME_SYSTEM    = UTC
MEAN_ELEMENT_THEORY = SGP/SGP4

EPOCH          = 2026-03-19T20:00:01.999872
MEAN_MOTION    = 15.56488843
ECCENTRICITY   = .00014266
INCLINATION    = 42.9995
RA_OF_ASC_NODE = 353.2989
ARG_OF_PERICENTER = 257.5207
MEAN_ANOMALY   = 177.0020

EPHEMERIS_TYPE = 0
CLASSIFICATION_TYPE = U
NORAD_CAT_ID   = 68004
ELEMENT_SET_NO = 999
REV_AT_EPOCH   = 450
BSTAR          = -.29626697E-1
MEAN_MOTION_DOT = -.190238E-1
MEAN_MOTION_DDOT = 0

CCSDS_OMM_VERS = 2.0
CREATION_DATE  = 
ORIGINATOR     = 

OBJECT_NAME    = STARLINK-36910
OBJECT_ID      = 2026-039V
CENTER_NAME    = EARTH
REF_FRAME      = TEME
TIME_SYSTEM    = UTC
MEAN_ELEMENT_THEORY = SGP/SGP4

EPOCH          = 2026-03-19T20:00:01.999872
MEAN_MOTION    = 15.60135510
ECCENTRICITY   = .00010072
INCLINATION    = 42.9998
RA_OF_ASC_NODE = 353.0923
ARG_OF_PERICENTER = 250.4432
MEAN_ANOMALY   = 266.8461

EPHEMERIS_TYPE = 0
CLASSIFICATION_TYPE = U
NORAD_CAT_ID   = 68005
ELEMENT_SET_NO = 999
REV_AT_EPOCH   = 450
BSTAR          = -.26195107E-1
MEAN_MOTION_DOT = -.192941E-1
MEAN_MOTION_DDOT = 0

